<?xml version="1.0" encoding="UTF-8"?>
<gpx version="1.1" creator="Marando" xmlns="http://www.topografix.com/GPX/1/1">
<wpt lat="50.0456983" lon="1.3305833"><ele>18.44</ele><name>Waypoint 1</name></wpt>
<wpt lat="50.04569999999999" lon="1.3306283"><ele>21.06</ele><name>0002658</name></wpt>
<wpt lat="50.04569499999999" lon="1.3305767"><ele>19.46</ele><name>0002659</name></wpt>
<wpt lat="50.04618670000001" lon="1.331085"><ele>4.53</ele><name>0002660</name></wpt>
<wpt lat="50.04627669999999" lon="1.33113"><ele>4.51</ele><name>0002661</name></wpt>
<wpt lat="50.04800830000001" lon="1.3346183"><ele>3.25</ele><name>0002662</name></wpt>
<wpt lat="50.0480267" lon="1.334625"><ele>4.25</ele><name>0002663</name></wpt>
<wpt lat="50.048045" lon="1.33462"><ele>6.250000000000001</ele><name>0002664</name></wpt>
<wpt lat="50.04932670000001" lon="1.337"><ele>0.65</ele><name>0002665</name></wpt>
<wpt lat="50.04932670000001" lon="1.337"><ele>0.65</ele><name>0002666</name></wpt>
<wpt lat="50.0499733" lon="1.3385917"><ele>5.35</ele><name>0002667</name></wpt>
<wpt lat="50.0499733" lon="1.3385917"><ele>5.35</ele><name>0002668</name></wpt>
<wpt lat="50.0499333" lon="1.3386667"><ele>0</ele><name>0002669</name></wpt>
<wpt lat="50.05019170000001" lon="1.3397517"><ele>-2.05</ele><name>0002670</name></wpt>
<wpt lat="50.05019170000001" lon="1.3397517"><ele>-2.05</ele><name>0002671</name></wpt>
<wpt lat="50.0502333" lon="1.3399333"><ele>3.35</ele><name>0002672</name></wpt>
<wpt lat="50.0504933" lon="1.3397167"><ele>-1.76</ele><name>0002673</name></wpt>
<wpt lat="50.05058" lon="1.3401983"><ele>-2.06</ele><name>0002674</name></wpt>
<wpt lat="50.05058" lon="1.3401983"><ele>-2.06</ele><name>0002675</name></wpt>
<wpt lat="50.05066170000001" lon="1.3405933"><ele>0</ele><name>0002676</name></wpt>
<wpt lat="50.05128499999999" lon="1.341575"><ele>-0.26</ele><name>0002677</name></wpt>
<wpt lat="50.05128499999999" lon="1.341575"><ele>-0.26</ele><name>0002678</name></wpt>
<wpt lat="50.051235" lon="1.3415967"><ele>0.44</ele><name>0002679</name></wpt>
<wpt lat="50.051235" lon="1.3415967"><ele>0.44</ele><name>0002680</name></wpt>
<wpt lat="50.05189000000001" lon="1.3430833"><ele>-0.16</ele><name>0002681</name></wpt>
<wpt lat="50.05189000000001" lon="1.3430833"><ele>-0.16</ele><name>0002682</name></wpt>
<wpt lat="50.05189000000001" lon="1.3430833"><ele>-0.16</ele><name>0002683</name></wpt>
<wpt lat="50.0519617" lon="1.343005"><ele>0.34</ele><name>0002684</name></wpt>
<wpt lat="50.0519617" lon="1.343005"><ele>0.34</ele><name>0002685</name></wpt>
<wpt lat="50.052485" lon="1.3444183"><ele>-0.16</ele><name>0002686</name></wpt>
<wpt lat="50.0531" lon="1.345415"><ele>0</ele><name>0002687</name></wpt>
<wpt lat="50.0531217" lon="1.3453933"><ele>2.44</ele><name>0002688</name></wpt>
<wpt lat="50.0531217" lon="1.3453933"><ele>2.44</ele><name>0002689</name></wpt>
<wpt lat="50.0542567" lon="1.3489483"><ele>1.24</ele><name>0002690</name></wpt>
<wpt lat="50.0542567" lon="1.3489483"><ele>4.33</ele><name>0002691</name></wpt>
<wpt lat="50.0555467" lon="1.3516033"><ele>3.04</ele><name>0002692</name></wpt>
<wpt lat="50.0555467" lon="1.3516033"><ele>6.04</ele><name>0002693</name></wpt>
<wpt lat="50.0554" lon="1.35172"><ele>8.55</ele><name>0002694</name></wpt>
<wpt lat="50.0548033" lon="1.3488883"><ele>3.91</ele><name>Waypoint 39</name></wpt>
<trk><name>2026-07-23 095137 general</name><trkseg>
<trkpt lat="50.0456983" lon="1.3305833"><ele>18.44</ele></trkpt>
<trkpt lat="50.04569330000001" lon="1.330595"><ele>18.77</ele></trkpt>
<trkpt lat="50.04569330000001" lon="1.3306383"><ele>20.59</ele></trkpt>
<trkpt lat="50.04569" lon="1.3305933"><ele>20.15</ele></trkpt>
<trkpt lat="50.0457017" lon="1.3305533"><ele>17.77</ele></trkpt>
<trkpt lat="50.0457317" lon="1.33057"><ele>9.92</ele></trkpt>
<trkpt lat="50.0457583" lon="1.3305933"><ele>9.76</ele></trkpt>
<trkpt lat="50.045775" lon="1.3306283"><ele>9.53</ele></trkpt>
<trkpt lat="50.0458033" lon="1.330655"><ele>9.48</ele></trkpt>
<trkpt lat="50.045835" lon="1.3306583"><ele>8.54</ele></trkpt>
<trkpt lat="50.04586499999999" lon="1.330625"><ele>7.94</ele></trkpt>
<trkpt lat="50.0458983" lon="1.3306217"><ele>7.849999999999999</ele></trkpt>
<trkpt lat="50.04593" lon="1.3306467"><ele>7.760000000000001</ele></trkpt>
<trkpt lat="50.04595329999999" lon="1.3306783"><ele>7.679999999999999</ele></trkpt>
<trkpt lat="50.04598" lon="1.330695"><ele>6.74</ele></trkpt>
<trkpt lat="50.0460067" lon="1.330705"><ele>5.69</ele></trkpt>
<trkpt lat="50.04602999999999" lon="1.33073"><ele>5.75</ele></trkpt>
<trkpt lat="50.0460567" lon="1.3307583"><ele>5.72</ele></trkpt>
<trkpt lat="50.0460833" lon="1.330775"><ele>5.65</ele></trkpt>
<trkpt lat="50.046095" lon="1.3308133"><ele>5.55</ele></trkpt>
<trkpt lat="50.0461183" lon="1.330855"><ele>5.61</ele></trkpt>
<trkpt lat="50.046145" lon="1.3308717"><ele>5.75</ele></trkpt>
<trkpt lat="50.0461583" lon="1.3309117"><ele>5.71</ele></trkpt>
<trkpt lat="50.046175" lon="1.3309517"><ele>4.81</ele></trkpt>
<trkpt lat="50.0462017" lon="1.33098"><ele>4.84</ele></trkpt>
<trkpt lat="50.0462183" lon="1.331015"><ele>4.63</ele></trkpt>
<trkpt lat="50.04622" lon="1.3310733"><ele>4.72</ele></trkpt>
<trkpt lat="50.0462083" lon="1.3311217"><ele>5.03</ele></trkpt>
<trkpt lat="50.0461933" lon="1.3311633"><ele>5.05</ele></trkpt>
<trkpt lat="50.046175" lon="1.3312117"><ele>5.14</ele></trkpt>
<trkpt lat="50.046155" lon="1.33125"><ele>5.05</ele></trkpt>
<trkpt lat="50.04613" lon="1.3312733"><ele>5.31</ele></trkpt>
<trkpt lat="50.0461033" lon="1.3312917"><ele>5.9</ele></trkpt>
<trkpt lat="50.0460867" lon="1.3313317"><ele>6.299999999999999</ele></trkpt>
<trkpt lat="50.0461167" lon="1.331305"><ele>6.44</ele></trkpt>
<trkpt lat="50.04613999999999" lon="1.3312633"><ele>6.54</ele></trkpt>
<trkpt lat="50.0461517" lon="1.33122"><ele>6.460000000000001</ele></trkpt>
<trkpt lat="50.0461717" lon="1.3311717"><ele>6.35</ele></trkpt>
<trkpt lat="50.04619830000001" lon="1.3311317"><ele>5.95</ele></trkpt>
<trkpt lat="50.0462117" lon="1.3310883"><ele>5.43</ele></trkpt>
<trkpt lat="50.0462783" lon="1.331125"><ele>4.85</ele></trkpt>
<trkpt lat="50.0461883" lon="1.331195"><ele>3.02</ele></trkpt>
<trkpt lat="50.04616170000001" lon="1.33123"><ele>2.61</ele></trkpt>
<trkpt lat="50.04613669999999" lon="1.3312567"><ele>3.37</ele></trkpt>
<trkpt lat="50.04617" lon="1.3312683"><ele>5.15</ele></trkpt>
<trkpt lat="50.04619999999999" lon="1.331255"><ele>4.98</ele></trkpt>
<trkpt lat="50.0462317" lon="1.3312617"><ele>4.61</ele></trkpt>
<trkpt lat="50.046265" lon="1.33127"><ele>4.09</ele></trkpt>
<trkpt lat="50.0462933" lon="1.3312933"><ele>3.95</ele></trkpt>
<trkpt lat="50.0463083" lon="1.33133"><ele>4.05</ele></trkpt>
<trkpt lat="50.0463333" lon="1.3313467"><ele>4.12</ele></trkpt>
<trkpt lat="50.04637" lon="1.331355"><ele>4.34</ele></trkpt>
<trkpt lat="50.0463967" lon="1.3313867"><ele>4.61</ele></trkpt>
<trkpt lat="50.04641" lon="1.331435"><ele>4.55</ele></trkpt>
<trkpt lat="50.0464283" lon="1.3314667"><ele>4.45</ele></trkpt>
<trkpt lat="50.0464533" lon="1.3314983"><ele>4.25</ele></trkpt>
<trkpt lat="50.04648" lon="1.3315183"><ele>4.25</ele></trkpt>
<trkpt lat="50.0465067" lon="1.331545"><ele>4.54</ele></trkpt>
<trkpt lat="50.046535" lon="1.331565"><ele>4.55</ele></trkpt>
<trkpt lat="50.0465617" lon="1.3315883"><ele>4.38</ele></trkpt>
<trkpt lat="50.0465833" lon="1.3316183"><ele>3.99</ele></trkpt>
<trkpt lat="50.0466133" lon="1.3316483"><ele>3.69</ele></trkpt>
<trkpt lat="50.0466233" lon="1.3316983"><ele>3.12</ele></trkpt>
<trkpt lat="50.04661830000001" lon="1.33174"><ele>2.72</ele></trkpt>
<trkpt lat="50.04661000000001" lon="1.33178"><ele>2.36</ele></trkpt>
<trkpt lat="50.0465267" lon="1.331835"><ele>-0.89</ele></trkpt>
<trkpt lat="50.04655000000001" lon="1.331805"><ele>-2.49</ele></trkpt>
<trkpt lat="50.0465783" lon="1.3318017"><ele>-2.06</ele></trkpt>
<trkpt lat="50.0466083" lon="1.3318067"><ele>-1.48</ele></trkpt>
<trkpt lat="50.04663669999999" lon="1.33182"><ele>-0.8600000000000001</ele></trkpt>
<trkpt lat="50.0466667" lon="1.3318417"><ele>0.17</ele></trkpt>
<trkpt lat="50.0466933" lon="1.3318633"><ele>1.28</ele></trkpt>
<trkpt lat="50.0467167" lon="1.3318967"><ele>2.39</ele></trkpt>
<trkpt lat="50.04673329999999" lon="1.3319333"><ele>3.51</ele></trkpt>
<trkpt lat="50.046765" lon="1.3319567"><ele>4.7</ele></trkpt>
<trkpt lat="50.04679" lon="1.3319817"><ele>5.26</ele></trkpt>
<trkpt lat="50.046785" lon="1.332035"><ele>6.03</ele></trkpt>
<trkpt lat="50.0467567" lon="1.33207"><ele>5.73</ele></trkpt>
<trkpt lat="50.0467867" lon="1.3320767"><ele>4.86</ele></trkpt>
<trkpt lat="50.0468233" lon="1.33205"><ele>4.94</ele></trkpt>
<trkpt lat="50.046845" lon="1.3320817"><ele>4.92</ele></trkpt>
<trkpt lat="50.04687" lon="1.33211"><ele>4.76</ele></trkpt>
<trkpt lat="50.046905" lon="1.332115"><ele>4.65</ele></trkpt>
<trkpt lat="50.0469233" lon="1.3321833"><ele>3.68</ele></trkpt>
<trkpt lat="50.046955" lon="1.332215"><ele>3.79</ele></trkpt>
<trkpt lat="50.0469767" lon="1.3322417"><ele>3.85</ele></trkpt>
<trkpt lat="50.0470033" lon="1.3322767"><ele>3.85</ele></trkpt>
<trkpt lat="50.0470333" lon="1.3322983"><ele>3.85</ele></trkpt>
<trkpt lat="50.04705830000001" lon="1.332315"><ele>4.2</ele></trkpt>
<trkpt lat="50.0470833" lon="1.3323317"><ele>4.09</ele></trkpt>
<trkpt lat="50.0471217" lon="1.3323333"><ele>4.03</ele></trkpt>
<trkpt lat="50.0471483" lon="1.3323417"><ele>4.15</ele></trkpt>
<trkpt lat="50.0471717" lon="1.3323183"><ele>4.44</ele></trkpt>
<trkpt lat="50.0471883" lon="1.33228"><ele>4.55</ele></trkpt>
<trkpt lat="50.04723" lon="1.332385"><ele>2.76</ele></trkpt>
<trkpt lat="50.0472567" lon="1.332415"><ele>2.35</ele></trkpt>
<trkpt lat="50.0472817" lon="1.33244"><ele>2.52</ele></trkpt>
<trkpt lat="50.0472817" lon="1.332485"><ele>2.62</ele></trkpt>
<trkpt lat="50.0472917" lon="1.332535"><ele>2.45</ele></trkpt>
<trkpt lat="50.0473083" lon="1.3325683"><ele>2.18</ele></trkpt>
<trkpt lat="50.04731330000001" lon="1.3326117"><ele>1.99</ele></trkpt>
<trkpt lat="50.04733000000001" lon="1.3326583"><ele>1.76</ele></trkpt>
<trkpt lat="50.04732" lon="1.3327017"><ele>1.47</ele></trkpt>
<trkpt lat="50.0473167" lon="1.332745"><ele>2.27</ele></trkpt>
<trkpt lat="50.0473717" lon="1.332845"><ele>2.4</ele></trkpt>
<trkpt lat="50.0473833" lon="1.332885"><ele>2.31</ele></trkpt>
<trkpt lat="50.0474017" lon="1.33292"><ele>2.64</ele></trkpt>
<trkpt lat="50.04741" lon="1.33296"><ele>2.68</ele></trkpt>
<trkpt lat="50.04740670000001" lon="1.3330217"><ele>2.66</ele></trkpt>
<trkpt lat="50.04740670000001" lon="1.333065"><ele>2.64</ele></trkpt>
<trkpt lat="50.0473483" lon="1.33317"><ele>2.55</ele></trkpt>
<trkpt lat="50.047285" lon="1.333285"><ele>3.23</ele></trkpt>
<trkpt lat="50.0473683" lon="1.33322"><ele>3.589999999999999</ele></trkpt>
<trkpt lat="50.0473983" lon="1.333215"><ele>3.649999999999999</ele></trkpt>
<trkpt lat="50.04743" lon="1.3332283"><ele>3.55</ele></trkpt>
<trkpt lat="50.04745329999999" lon="1.3332583"><ele>3.45</ele></trkpt>
<trkpt lat="50.04748" lon="1.33329"><ele>3.62</ele></trkpt>
<trkpt lat="50.047495" lon="1.3333283"><ele>4.1</ele></trkpt>
<trkpt lat="50.0475067" lon="1.3333667"><ele>4.41</ele></trkpt>
<trkpt lat="50.04752999999999" lon="1.3334067"><ele>4.45</ele></trkpt>
<trkpt lat="50.0475533" lon="1.3334367"><ele>4.55</ele></trkpt>
<trkpt lat="50.04757670000001" lon="1.3334617"><ele>4.82</ele></trkpt>
<trkpt lat="50.04758500000001" lon="1.3335033"><ele>4.95</ele></trkpt>
<trkpt lat="50.04759829999999" lon="1.33355"><ele>4.06</ele></trkpt>
<trkpt lat="50.04761499999999" lon="1.3335933"><ele>3.46</ele></trkpt>
<trkpt lat="50.04763999999999" lon="1.3336167"><ele>3.28</ele></trkpt>
<trkpt lat="50.047645" lon="1.33366"><ele>3.25</ele></trkpt>
<trkpt lat="50.0476683" lon="1.3336967"><ele>3.32</ele></trkpt>
<trkpt lat="50.0476833" lon="1.3337317"><ele>3.28</ele></trkpt>
<trkpt lat="50.04770329999999" lon="1.333765"><ele>3.35</ele></trkpt>
<trkpt lat="50.0477167" lon="1.3338017"><ele>3.379999999999999</ele></trkpt>
<trkpt lat="50.04772499999999" lon="1.3338633"><ele>2.81</ele></trkpt>
<trkpt lat="50.0477367" lon="1.3339017"><ele>2.65</ele></trkpt>
<trkpt lat="50.047765" lon="1.3339183"><ele>2.34</ele></trkpt>
<trkpt lat="50.0477733" lon="1.3339583"><ele>2.45</ele></trkpt>
<trkpt lat="50.0477933" lon="1.33399"><ele>2.64</ele></trkpt>
<trkpt lat="50.0478083" lon="1.334025"><ele>2.92</ele></trkpt>
<trkpt lat="50.04786000000001" lon="1.33406"><ele>2.39</ele></trkpt>
<trkpt lat="50.04789" lon="1.33407"><ele>1.78</ele></trkpt>
<trkpt lat="50.0479033" lon="1.3340083"><ele>1.28</ele></trkpt>
<trkpt lat="50.0479267" lon="1.334075"><ele>0.7999999999999999</ele></trkpt>
<trkpt lat="50.04794500000001" lon="1.3341083"><ele>1.11</ele></trkpt>
<trkpt lat="50.0479433" lon="1.334165"><ele>1.32</ele></trkpt>
<trkpt lat="50.04796" lon="1.3342017"><ele>1.61</ele></trkpt>
<trkpt lat="50.0479817" lon="1.334235"><ele>2.01</ele></trkpt>
<trkpt lat="50.0480017" lon="1.3342683"><ele>2.21</ele></trkpt>
<trkpt lat="50.048005" lon="1.3343133"><ele>2.83</ele></trkpt>
<trkpt lat="50.04797330000001" lon="1.334445"><ele>3.11</ele></trkpt>
<trkpt lat="50.04799" lon="1.33448"><ele>3.149999999999999</ele></trkpt>
<trkpt lat="50.0480117" lon="1.3345083"><ele>3.32</ele></trkpt>
<trkpt lat="50.04802500000001" lon="1.334545"><ele>3.58</ele></trkpt>
<trkpt lat="50.0479617" lon="1.3346533"><ele>3.55</ele></trkpt>
<trkpt lat="50.0479517" lon="1.3347033"><ele>4.01</ele></trkpt>
<trkpt lat="50.047925" lon="1.3347283"><ele>5.47</ele></trkpt>
<trkpt lat="50.0479533" lon="1.3347233"><ele>5.94</ele></trkpt>
<trkpt lat="50.04797499999999" lon="1.334695"><ele>5.59</ele></trkpt>
<trkpt lat="50.0479917" lon="1.334655"><ele>4.65</ele></trkpt>
<trkpt lat="50.0480033" lon="1.3346117"><ele>3.91</ele></trkpt>
<trkpt lat="50.04803" lon="1.334635"><ele>4.74</ele></trkpt>
<trkpt lat="50.04799999999999" lon="1.3346433"><ele>6.250000000000001</ele></trkpt>
<trkpt lat="50.04797499999999" lon="1.334665"><ele>6.44</ele></trkpt>
<trkpt lat="50.0479" lon="1.3346967"><ele>7.149999999999999</ele></trkpt>
<trkpt lat="50.0479267" lon="1.3347183"><ele>7.54</ele></trkpt>
<trkpt lat="50.0479567" lon="1.3347033"><ele>7.54</ele></trkpt>
<trkpt lat="50.04799" lon="1.3347117"><ele>9.14</ele></trkpt>
<trkpt lat="50.0480133" lon="1.33469"><ele>9.42</ele></trkpt>
<trkpt lat="50.0480433" lon="1.3346733"><ele>9.62</ele></trkpt>
<trkpt lat="50.048075" lon="1.33466"><ele>9.39</ele></trkpt>
<trkpt lat="50.0480983" lon="1.3346833"><ele>7.24</ele></trkpt>
<trkpt lat="50.048125" lon="1.3346983"><ele>6.549999999999999</ele></trkpt>
<trkpt lat="50.0481417" lon="1.3347417"><ele>6.549999999999999</ele></trkpt>
<trkpt lat="50.0481567" lon="1.3347883"><ele>6.64</ele></trkpt>
<trkpt lat="50.0481833" lon="1.3348217"><ele>6.72</ele></trkpt>
<trkpt lat="50.0482067" lon="1.3348483"><ele>6.91</ele></trkpt>
<trkpt lat="50.04822830000001" lon="1.3348917"><ele>6.95</ele></trkpt>
<trkpt lat="50.0482417" lon="1.334935"><ele>6.6</ele></trkpt>
<trkpt lat="50.0482517" lon="1.3349783"><ele>6.36</ele></trkpt>
<trkpt lat="50.04828000000001" lon="1.335"><ele>6.509999999999999</ele></trkpt>
<trkpt lat="50.0483017" lon="1.3350317"><ele>6.39</ele></trkpt>
<trkpt lat="50.0483267" lon="1.3350633"><ele>6.250000000000001</ele></trkpt>
<trkpt lat="50.0483483" lon="1.3350967"><ele>6.339999999999999</ele></trkpt>
<trkpt lat="50.0483667" lon="1.3351317"><ele>6.06</ele></trkpt>
<trkpt lat="50.0483767" lon="1.3351733"><ele>6.18</ele></trkpt>
<trkpt lat="50.0483883" lon="1.335215"><ele>6.22</ele></trkpt>
<trkpt lat="50.0484067" lon="1.3352467"><ele>6.339999999999999</ele></trkpt>
<trkpt lat="50.0484383" lon="1.3352683"><ele>6.44</ele></trkpt>
<trkpt lat="50.04846670000001" lon="1.3352817"><ele>6.969999999999999</ele></trkpt>
<trkpt lat="50.0484867" lon="1.335315"><ele>7.42</ele></trkpt>
<trkpt lat="50.04850829999999" lon="1.335345"><ele>7.45</ele></trkpt>
<trkpt lat="50.048535" lon="1.3353617"><ele>7.149999999999999</ele></trkpt>
<trkpt lat="50.048525" lon="1.3354083"><ele>6.419999999999999</ele></trkpt>
<trkpt lat="50.04845" lon="1.335505"><ele>6.22</ele></trkpt>
<trkpt lat="50.04852" lon="1.3355133"><ele>6.31</ele></trkpt>
<trkpt lat="50.0485533" lon="1.335535"><ele>6.41</ele></trkpt>
<trkpt lat="50.04858" lon="1.3355483"><ele>6.609999999999999</ele></trkpt>
<trkpt lat="50.0486083" lon="1.3355433"><ele>6.48</ele></trkpt>
<trkpt lat="50.04864000000001" lon="1.33554"><ele>6.35</ele></trkpt>
<trkpt lat="50.0486483" lon="1.3355933"><ele>6.32</ele></trkpt>
<trkpt lat="50.04864169999999" lon="1.335635"><ele>5.43</ele></trkpt>
<trkpt lat="50.04866999999999" lon="1.33566"><ele>6</ele></trkpt>
<trkpt lat="50.0486983" lon="1.33567"><ele>5.86</ele></trkpt>
<trkpt lat="50.048725" lon="1.335685"><ele>5.75</ele></trkpt>
<trkpt lat="50.04866669999999" lon="1.335765"><ele>2.93</ele></trkpt>
<trkpt lat="50.04869169999999" lon="1.3357867"><ele>2.36</ele></trkpt>
<trkpt lat="50.0487133" lon="1.3358183"><ele>2.67</ele></trkpt>
<trkpt lat="50.0486533" lon="1.3359533"><ele>4.92</ele></trkpt>
<trkpt lat="50.0485483" lon="1.336"><ele>6.02</ele></trkpt>
<trkpt lat="50.04855830000001" lon="1.3359417"><ele>6.95</ele></trkpt>
<trkpt lat="50.0485283" lon="1.3359417"><ele>6.79</ele></trkpt>
<trkpt lat="50.0485033" lon="1.3359183"><ele>5.98</ele></trkpt>
<trkpt lat="50.0485367" lon="1.3359217"><ele>7.400000000000001</ele></trkpt>
<trkpt lat="50.0485617" lon="1.3358933"><ele>7.259999999999999</ele></trkpt>
<trkpt lat="50.0485833" lon="1.3358583"><ele>6.969999999999999</ele></trkpt>
<trkpt lat="50.0486017" lon="1.3358017"><ele>5.56</ele></trkpt>
<trkpt lat="50.04863" lon="1.335785"><ele>4.59</ele></trkpt>
<trkpt lat="50.0486617" lon="1.3357683"><ele>4.11</ele></trkpt>
<trkpt lat="50.04869" lon="1.33577"><ele>3.55</ele></trkpt>
<trkpt lat="50.0486983" lon="1.3358183"><ele>2.71</ele></trkpt>
<trkpt lat="50.04872830000001" lon="1.3358333"><ele>2.61</ele></trkpt>
<trkpt lat="50.04875169999999" lon="1.3358683"><ele>3.3</ele></trkpt>
<trkpt lat="50.048775" lon="1.3359633"><ele>4.22</ele></trkpt>
<trkpt lat="50.0487667" lon="1.3360117"><ele>4.32</ele></trkpt>
<trkpt lat="50.0487733" lon="1.3360567"><ele>4.42</ele></trkpt>
<trkpt lat="50.0487783" lon="1.3361"><ele>4.54</ele></trkpt>
<trkpt lat="50.048795" lon="1.336135"><ele>4.85</ele></trkpt>
<trkpt lat="50.0487833" lon="1.3361783"><ele>4.85</ele></trkpt>
<trkpt lat="50.0488" lon="1.3362133"><ele>5.04</ele></trkpt>
<trkpt lat="50.04882" lon="1.3362433"><ele>5.14</ele></trkpt>
<trkpt lat="50.04883000000001" lon="1.3362917"><ele>5.48</ele></trkpt>
<trkpt lat="50.0488467" lon="1.336325"><ele>5.81</ele></trkpt>
<trkpt lat="50.04887" lon="1.3363617"><ele>6.339999999999999</ele></trkpt>
<trkpt lat="50.0488867" lon="1.3363983"><ele>6.58</ele></trkpt>
<trkpt lat="50.04891" lon="1.33643"><ele>6.83</ele></trkpt>
<trkpt lat="50.04893" lon="1.3364683"><ele>7.359999999999999</ele></trkpt>
<trkpt lat="50.0489567" lon="1.3364983"><ele>7.639999999999999</ele></trkpt>
<trkpt lat="50.04898" lon="1.336525"><ele>7.819999999999999</ele></trkpt>
<trkpt lat="50.04894999999999" lon="1.3366133"><ele>7.090000000000001</ele></trkpt>
<trkpt lat="50.04897830000001" lon="1.3366083"><ele>6.16</ele></trkpt>
<trkpt lat="50.049015" lon="1.3366233"><ele>6.23</ele></trkpt>
<trkpt lat="50.0490483" lon="1.3366333"><ele>6.6</ele></trkpt>
<trkpt lat="50.0490733" lon="1.33665"><ele>6.74</ele></trkpt>
<trkpt lat="50.0491" lon="1.3366733"><ele>6.589999999999999</ele></trkpt>
<trkpt lat="50.04912329999999" lon="1.3367"><ele>6.379999999999999</ele></trkpt>
<trkpt lat="50.0491583" lon="1.3367433"><ele>6.85</ele></trkpt>
<trkpt lat="50.04917499999999" lon="1.3367783"><ele>6.75</ele></trkpt>
<trkpt lat="50.0491783" lon="1.3368333"><ele>6.92</ele></trkpt>
<trkpt lat="50.04918670000001" lon="1.3368783"><ele>6.589999999999999</ele></trkpt>
<trkpt lat="50.0492117" lon="1.3368983"><ele>6.54</ele></trkpt>
<trkpt lat="50.04924170000001" lon="1.3369267"><ele>8.13</ele></trkpt>
<trkpt lat="50.049205" lon="1.3369967"><ele>8.38</ele></trkpt>
<trkpt lat="50.049205" lon="1.3370417"><ele>8.71</ele></trkpt>
<trkpt lat="50.0491517" lon="1.337155"><ele>10.17</ele></trkpt>
<trkpt lat="50.0490783" lon="1.3372517"><ele>10.5</ele></trkpt>
<trkpt lat="50.0491583" lon="1.337185"><ele>10.29</ele></trkpt>
<trkpt lat="50.04917330000001" lon="1.33714"><ele>10.15</ele></trkpt>
<trkpt lat="50.04925000000001" lon="1.3370633"><ele>8.61</ele></trkpt>
<trkpt lat="50.04917330000001" lon="1.3371683"><ele>5.99</ele></trkpt>
<trkpt lat="50.0491467" lon="1.3371983"><ele>5.36</ele></trkpt>
<trkpt lat="50.0491767" lon="1.3371933"><ele>4.31</ele></trkpt>
<trkpt lat="50.04920329999999" lon="1.3371617"><ele>4.07</ele></trkpt>
<trkpt lat="50.04922499999999" lon="1.337135"><ele>3.62</ele></trkpt>
<trkpt lat="50.0492483" lon="1.3371083"><ele>2.9</ele></trkpt>
<trkpt lat="50.0492683" lon="1.3370683"><ele>2.33</ele></trkpt>
<trkpt lat="50.04928829999999" lon="1.3370317"><ele>1.9</ele></trkpt>
<trkpt lat="50.0493083" lon="1.3370033"><ele>1.55</ele></trkpt>
<trkpt lat="50.0492567" lon="1.3370917"><ele>3.89</ele></trkpt>
<trkpt lat="50.0492183" lon="1.3371167"><ele>4.13</ele></trkpt>
<trkpt lat="50.04919169999999" lon="1.337135"><ele>4.14</ele></trkpt>
<trkpt lat="50.0491683" lon="1.3371817"><ele>4.83</ele></trkpt>
<trkpt lat="50.0491983" lon="1.3371933"><ele>5.07</ele></trkpt>
<trkpt lat="50.0492333" lon="1.3372067"><ele>4.75</ele></trkpt>
<trkpt lat="50.04925999999999" lon="1.3372"><ele>4.74</ele></trkpt>
<trkpt lat="50.04929" lon="1.3372083"><ele>4.01</ele></trkpt>
<trkpt lat="50.049325" lon="1.337195"><ele>3.399999999999999</ele></trkpt>
<trkpt lat="50.0493533" lon="1.337205"><ele>3.06</ele></trkpt>
<trkpt lat="50.0493667" lon="1.3372433"><ele>2.78</ele></trkpt>
<trkpt lat="50.04938" lon="1.3372867"><ele>2.84</ele></trkpt>
<trkpt lat="50.04939" lon="1.33733"><ele>2.65</ele></trkpt>
<trkpt lat="50.0494017" lon="1.33737"><ele>2.55</ele></trkpt>
<trkpt lat="50.0494283" lon="1.3374017"><ele>2.83</ele></trkpt>
<trkpt lat="50.04945829999999" lon="1.3374033"><ele>2.92</ele></trkpt>
<trkpt lat="50.0494883" lon="1.3374267"><ele>1.88</ele></trkpt>
<trkpt lat="50.0494983" lon="1.3374667"><ele>1.39</ele></trkpt>
<trkpt lat="50.04951" lon="1.3375583"><ele>2.19</ele></trkpt>
<trkpt lat="50.04957" lon="1.3376167"><ele>3.55</ele></trkpt>
<trkpt lat="50.0495967" lon="1.3376267"><ele>4.33</ele></trkpt>
<trkpt lat="50.0496133" lon="1.33759"><ele>3.6</ele></trkpt>
<trkpt lat="50.049595" lon="1.3375517"><ele>2.99</ele></trkpt>
<trkpt lat="50.04961830000001" lon="1.3376433"><ele>3.399999999999999</ele></trkpt>
<trkpt lat="50.04963500000001" lon="1.3376867"><ele>3.93</ele></trkpt>
<trkpt lat="50.0496433" lon="1.3377283"><ele>4.2</ele></trkpt>
<trkpt lat="50.04964829999999" lon="1.33777"><ele>4.16</ele></trkpt>
<trkpt lat="50.0496417" lon="1.3378267"><ele>4.34</ele></trkpt>
<trkpt lat="50.04963" lon="1.337875"><ele>4.44</ele></trkpt>
<trkpt lat="50.04963669999999" lon="1.337925"><ele>4.35</ele></trkpt>
<trkpt lat="50.0496583" lon="1.337955"><ele>4.28</ele></trkpt>
<trkpt lat="50.0496917" lon="1.3379733"><ele>4.41</ele></trkpt>
<trkpt lat="50.0497" lon="1.338015"><ele>3.29</ele></trkpt>
<trkpt lat="50.0496883" lon="1.3380583"><ele>3.43</ele></trkpt>
<trkpt lat="50.04970829999999" lon="1.3380917"><ele>3.819999999999999</ele></trkpt>
<trkpt lat="50.049725" lon="1.3381283"><ele>4.2</ele></trkpt>
<trkpt lat="50.04971" lon="1.338165"><ele>3.98</ele></trkpt>
<trkpt lat="50.04970829999999" lon="1.3382167"><ele>3.22</ele></trkpt>
<trkpt lat="50.049735" lon="1.338245"><ele>3.12</ele></trkpt>
<trkpt lat="50.0497567" lon="1.3382783"><ele>3.589999999999999</ele></trkpt>
<trkpt lat="50.0497867" lon="1.338295"><ele>4.17</ele></trkpt>
<trkpt lat="50.0498133" lon="1.3383183"><ele>4.57</ele></trkpt>
<trkpt lat="50.0498367" lon="1.3383483"><ele>4.84</ele></trkpt>
<trkpt lat="50.0498617" lon="1.3383783"><ele>5.13</ele></trkpt>
<trkpt lat="50.04986830000001" lon="1.33842"><ele>5.18</ele></trkpt>
<trkpt lat="50.04985" lon="1.3384633"><ele>5.03</ele></trkpt>
<trkpt lat="50.04983" lon="1.3385"><ele>5.21</ele></trkpt>
<trkpt lat="50.049845" lon="1.338535"><ele>3.88</ele></trkpt>
<trkpt lat="50.04983" lon="1.33857"><ele>2.96</ele></trkpt>
<trkpt lat="50.0498667" lon="1.33858"><ele>3.27</ele></trkpt>
<trkpt lat="50.04989" lon="1.3386017"><ele>3.9</ele></trkpt>
<trkpt lat="50.0498983" lon="1.338645"><ele>4.07</ele></trkpt>
<trkpt lat="50.0498167" lon="1.3387633"><ele>4.999999999999999</ele></trkpt>
<trkpt lat="50.049785" lon="1.3388017"><ele>6.22</ele></trkpt>
<trkpt lat="50.04980500000001" lon="1.3388333"><ele>7.27</ele></trkpt>
<trkpt lat="50.0498333" lon="1.3388383"><ele>8.07</ele></trkpt>
<trkpt lat="50.04984" lon="1.3387967"><ele>8.12</ele></trkpt>
<trkpt lat="50.0498583" lon="1.3387383"><ele>7.88</ele></trkpt>
<trkpt lat="50.04988669999999" lon="1.3387083"><ele>7.52</ele></trkpt>
<trkpt lat="50.0499067" lon="1.33868"><ele>7.13</ele></trkpt>
<trkpt lat="50.0499333" lon="1.3386567"><ele>6.629999999999999</ele></trkpt>
<trkpt lat="50.04995" lon="1.33862"><ele>6.089999999999999</ele></trkpt>
<trkpt lat="50.0499733" lon="1.338595"><ele>5.46</ele></trkpt>
<trkpt lat="50.04995330000001" lon="1.3386233"><ele>5.99</ele></trkpt>
<trkpt lat="50.0499267" lon="1.3386467"><ele>6.14</ele></trkpt>
<trkpt lat="50.0498767" lon="1.3387667"><ele>6.419999999999999</ele></trkpt>
<trkpt lat="50.04988170000001" lon="1.3387217"><ele>4.72</ele></trkpt>
<trkpt lat="50.0498983" lon="1.338685"><ele>4.32</ele></trkpt>
<trkpt lat="50.0499433" lon="1.3387"><ele>4.98</ele></trkpt>
<trkpt lat="50.0499567" lon="1.3386583"><ele>4.76</ele></trkpt>
<trkpt lat="50.0499383" lon="1.3387017"><ele>4.61</ele></trkpt>
<trkpt lat="50.0498517" lon="1.3387867"><ele>5.89</ele></trkpt>
<trkpt lat="50.0498367" lon="1.3388667"><ele>6.68</ele></trkpt>
<trkpt lat="50.049865" lon="1.3388267"><ele>6.58</ele></trkpt>
<trkpt lat="50.0498967" lon="1.3387967"><ele>6.549999999999999</ele></trkpt>
<trkpt lat="50.04993" lon="1.3387767"><ele>6.45</ele></trkpt>
<trkpt lat="50.0498367" lon="1.33885"><ele>5.8</ele></trkpt>
<trkpt lat="50.04981829999999" lon="1.3388917"><ele>3.819999999999999</ele></trkpt>
<trkpt lat="50.049845" lon="1.338845"><ele>3.3</ele></trkpt>
<trkpt lat="50.0498717" lon="1.3387933"><ele>3.34</ele></trkpt>
<trkpt lat="50.04989330000001" lon="1.3387517"><ele>3.51</ele></trkpt>
<trkpt lat="50.0498367" lon="1.33884"><ele>3.29</ele></trkpt>
<trkpt lat="50.0497667" lon="1.3389217"><ele>2.08</ele></trkpt>
<trkpt lat="50.0498583" lon="1.3389533"><ele>7.73</ele></trkpt>
<trkpt lat="50.0497767" lon="1.33894"><ele>11.18</ele></trkpt>
<trkpt lat="50.049965" lon="1.3387083"><ele>4.24</ele></trkpt>
<trkpt lat="50.04997999999999" lon="1.33867"><ele>4.8</ele></trkpt>
<trkpt lat="50.0500033" lon="1.338645"><ele>4.9</ele></trkpt>
<trkpt lat="50.050035" lon="1.3386267"><ele>5.26</ele></trkpt>
<trkpt lat="50.050085" lon="1.3386367"><ele>7.56</ele></trkpt>
<trkpt lat="50.0501083" lon="1.3386633"><ele>8.17</ele></trkpt>
<trkpt lat="50.0501283" lon="1.3386983"><ele>7.79</ele></trkpt>
<trkpt lat="50.050155" lon="1.3387367"><ele>7.84</ele></trkpt>
<trkpt lat="50.050175" lon="1.3387767"><ele>8.04</ele></trkpt>
<trkpt lat="50.050185" lon="1.3388183"><ele>8.05</ele></trkpt>
<trkpt lat="50.0502067" lon="1.33885"><ele>8.14</ele></trkpt>
<trkpt lat="50.05023" lon="1.3388767"><ele>8.13</ele></trkpt>
<trkpt lat="50.0502617" lon="1.3388867"><ele>8.15</ele></trkpt>
<trkpt lat="50.0502933" lon="1.3388917"><ele>8.12</ele></trkpt>
<trkpt lat="50.05032" lon="1.3389033"><ele>8.24</ele></trkpt>
<trkpt lat="50.05033999999999" lon="1.33894"><ele>8.74</ele></trkpt>
<trkpt lat="50.0503533" lon="1.3389817"><ele>9.23</ele></trkpt>
<trkpt lat="50.05035669999999" lon="1.339025"><ele>9.07</ele></trkpt>
<trkpt lat="50.0503583" lon="1.3390817"><ele>8.36</ele></trkpt>
<trkpt lat="50.0503667" lon="1.3391317"><ele>7.909999999999999</ele></trkpt>
<trkpt lat="50.05037" lon="1.339175"><ele>7.59</ele></trkpt>
<trkpt lat="50.0503917" lon="1.33922"><ele>7.179999999999999</ele></trkpt>
<trkpt lat="50.05040670000001" lon="1.339265"><ele>6.95</ele></trkpt>
<trkpt lat="50.0504017" lon="1.3393117"><ele>6.56</ele></trkpt>
<trkpt lat="50.050385" lon="1.339345"><ele>5.49</ele></trkpt>
<trkpt lat="50.05037" lon="1.339485"><ele>5.44</ele></trkpt>
<trkpt lat="50.050325" lon="1.33959"><ele>4.02</ele></trkpt>
<trkpt lat="50.0502433" lon="1.3397133"><ele>3.25</ele></trkpt>
<trkpt lat="50.05016669999999" lon="1.3398133"><ele>6.85</ele></trkpt>
<trkpt lat="50.0501867" lon="1.33977"><ele>5.21</ele></trkpt>
<trkpt lat="50.0502067" lon="1.339735"><ele>4.2</ele></trkpt>
<trkpt lat="50.0502333" lon="1.3397183"><ele>2.49</ele></trkpt>
<trkpt lat="50.05026329999999" lon="1.3396833"><ele>2.13</ele></trkpt>
<trkpt lat="50.050285" lon="1.33965"><ele>1.88</ele></trkpt>
<trkpt lat="50.0501983" lon="1.3397467"><ele>-1.35</ele></trkpt>
<trkpt lat="50.0502217" lon="1.339725"><ele>-1.19</ele></trkpt>
<trkpt lat="50.050195" lon="1.3397383"><ele>-0.51</ele></trkpt>
<trkpt lat="50.050155" lon="1.3397383"><ele>-0.13</ele></trkpt>
<trkpt lat="50.050185" lon="1.3397367"><ele>-0.14</ele></trkpt>
<trkpt lat="50.0502117" lon="1.3397267"><ele>0.17</ele></trkpt>
<trkpt lat="50.05024" lon="1.339715"><ele>1.21</ele></trkpt>
<trkpt lat="50.0502717" lon="1.339715"><ele>1.48</ele></trkpt>
<trkpt lat="50.0503067" lon="1.33972"><ele>1.99</ele></trkpt>
<trkpt lat="50.0503367" lon="1.3397283"><ele>2.3</ele></trkpt>
<trkpt lat="50.0503633" lon="1.3397567"><ele>2.69</ele></trkpt>
<trkpt lat="50.0503717" lon="1.3398117"><ele>3</ele></trkpt>
<trkpt lat="50.05037" lon="1.339865"><ele>3.47</ele></trkpt>
<trkpt lat="50.0503467" lon="1.3398983"><ele>3.9</ele></trkpt>
<trkpt lat="50.05025499999999" lon="1.3399283"><ele>3.589999999999999</ele></trkpt>
<trkpt lat="50.0502983" lon="1.339895"><ele>1.81</ele></trkpt>
<trkpt lat="50.050335" lon="1.3398667"><ele>0.02</ele></trkpt>
<trkpt lat="50.0503667" lon="1.33984"><ele>-0.03</ele></trkpt>
<trkpt lat="50.0503967" lon="1.3398117"><ele>-0.28</ele></trkpt>
<trkpt lat="50.0504217" lon="1.3397833"><ele>-0.37</ele></trkpt>
<trkpt lat="50.05044999999999" lon="1.3397533"><ele>-0.68</ele></trkpt>
<trkpt lat="50.05047500000001" lon="1.3397167"><ele>-1.33</ele></trkpt>
<trkpt lat="50.0505217" lon="1.3397467"><ele>-2.32</ele></trkpt>
<trkpt lat="50.05055" lon="1.3397533"><ele>-2.22</ele></trkpt>
<trkpt lat="50.05057" lon="1.3398"><ele>-0.78</ele></trkpt>
<trkpt lat="50.05052669999999" lon="1.339905"><ele>-0.63</ele></trkpt>
<trkpt lat="50.050445" lon="1.340025"><ele>-1.61</ele></trkpt>
<trkpt lat="50.0504717" lon="1.3400517"><ele>-1.64</ele></trkpt>
<trkpt lat="50.0505117" lon="1.340045"><ele>-1.6</ele></trkpt>
<trkpt lat="50.050545" lon="1.3400417"><ele>-1.2</ele></trkpt>
<trkpt lat="50.05057670000001" lon="1.3400367"><ele>-0.61</ele></trkpt>
<trkpt lat="50.050605" lon="1.3400283"><ele>-0.36</ele></trkpt>
<trkpt lat="50.0506317" lon="1.3400217"><ele>-0.19</ele></trkpt>
<trkpt lat="50.0506567" lon="1.3400517"><ele>0.2</ele></trkpt>
<trkpt lat="50.0506283" lon="1.3401217"><ele>-0.09999999999999999</ele></trkpt>
<trkpt lat="50.05062" lon="1.3401617"><ele>0.11</ele></trkpt>
<trkpt lat="50.0505717" lon="1.3403067"><ele>0.19</ele></trkpt>
<trkpt lat="50.0504767" lon="1.340395"><ele>-0.58</ele></trkpt>
<trkpt lat="50.0503633" lon="1.34042"><ele>-5.07</ele></trkpt>
<trkpt lat="50.0504267" lon="1.3403417"><ele>-5.41</ele></trkpt>
<trkpt lat="50.0504817" lon="1.3403217"><ele>-4.24</ele></trkpt>
<trkpt lat="50.0505217" lon="1.3403017"><ele>-3.71</ele></trkpt>
<trkpt lat="50.0505467" lon="1.3402733"><ele>-3.19</ele></trkpt>
<trkpt lat="50.050565" lon="1.34023"><ele>-2.47</ele></trkpt>
<trkpt lat="50.05061" lon="1.3401983"><ele>0.62</ele></trkpt>
<trkpt lat="50.0505817" lon="1.3402217"><ele>0.9</ele></trkpt>
<trkpt lat="50.0505583" lon="1.3402433"><ele>1.1</ele></trkpt>
<trkpt lat="50.0505317" lon="1.3402667"><ele>1.23</ele></trkpt>
<trkpt lat="50.0505067" lon="1.34029"><ele>1.43</ele></trkpt>
<trkpt lat="50.0505367" lon="1.3402667"><ele>1.08</ele></trkpt>
<trkpt lat="50.05056330000001" lon="1.3402583"><ele>1.12</ele></trkpt>
<trkpt lat="50.05058999999999" lon="1.3402767"><ele>0.9199999999999999</ele></trkpt>
<trkpt lat="50.05061169999999" lon="1.3403117"><ele>0.38</ele></trkpt>
<trkpt lat="50.0506167" lon="1.340355"><ele>0.3</ele></trkpt>
<trkpt lat="50.0506517" lon="1.340365"><ele>1.77</ele></trkpt>
<trkpt lat="50.0506633" lon="1.3404117"><ele>2.62</ele></trkpt>
<trkpt lat="50.05066669999999" lon="1.34046"><ele>1.25</ele></trkpt>
<trkpt lat="50.0506983" lon="1.3404317"><ele>1.22</ele></trkpt>
<trkpt lat="50.05073" lon="1.3404133"><ele>1.15</ele></trkpt>
<trkpt lat="50.05075999999999" lon="1.34039"><ele>1.07</ele></trkpt>
<trkpt lat="50.05079" lon="1.3403717"><ele>1.21</ele></trkpt>
<trkpt lat="50.0508217" lon="1.340365"><ele>1.89</ele></trkpt>
<trkpt lat="50.050855" lon="1.3403633"><ele>2.4</ele></trkpt>
<trkpt lat="50.05083830000001" lon="1.3404033"><ele>2.81</ele></trkpt>
<trkpt lat="50.0507733" lon="1.3405017"><ele>2</ele></trkpt>
<trkpt lat="50.0507367" lon="1.3405267"><ele>1.26</ele></trkpt>
<trkpt lat="50.0507017" lon="1.34055"><ele>0.55</ele></trkpt>
<trkpt lat="50.0506717" lon="1.3405817"><ele>0.2</ele></trkpt>
<trkpt lat="50.050715" lon="1.3404867"><ele>-3.589999999999999</ele></trkpt>
<trkpt lat="50.0507483" lon="1.3404783"><ele>-3.67</ele></trkpt>
<trkpt lat="50.0507817" lon="1.3404717"><ele>-3.05</ele></trkpt>
<trkpt lat="50.0508167" lon="1.3404733"><ele>-2.22</ele></trkpt>
<trkpt lat="50.050855" lon="1.3404817"><ele>-1.63</ele></trkpt>
<trkpt lat="50.05088669999999" lon="1.3404983"><ele>-1.07</ele></trkpt>
<trkpt lat="50.0509183" lon="1.34051"><ele>-0.59</ele></trkpt>
<trkpt lat="50.05094669999999" lon="1.340525"><ele>-0.11</ele></trkpt>
<trkpt lat="50.0509733" lon="1.3405567"><ele>0.23</ele></trkpt>
<trkpt lat="50.0510017" lon="1.340575"><ele>1.06</ele></trkpt>
<trkpt lat="50.0510233" lon="1.3406367"><ele>1.82</ele></trkpt>
<trkpt lat="50.0510517" lon="1.3406383"><ele>1.94</ele></trkpt>
<trkpt lat="50.0510733" lon="1.3406667"><ele>1.85</ele></trkpt>
<trkpt lat="50.051095" lon="1.3407"><ele>1.49</ele></trkpt>
<trkpt lat="50.0511167" lon="1.3407333"><ele>1.07</ele></trkpt>
<trkpt lat="50.05114" lon="1.340755"><ele>1.3</ele></trkpt>
<trkpt lat="50.05117000000001" lon="1.340765"><ele>2.11</ele></trkpt>
<trkpt lat="50.0511933" lon="1.3408033"><ele>2.34</ele></trkpt>
<trkpt lat="50.0512267" lon="1.340825"><ele>2.53</ele></trkpt>
<trkpt lat="50.05125830000001" lon="1.340845"><ele>2.87</ele></trkpt>
<trkpt lat="50.051275" lon="1.34088"><ele>3.490000000000001</ele></trkpt>
<trkpt lat="50.05127170000001" lon="1.3409283"><ele>3.54</ele></trkpt>
<trkpt lat="50.0512567" lon="1.3409783"><ele>3.57</ele></trkpt>
<trkpt lat="50.0512383" lon="1.3410133"><ele>3.379999999999999</ele></trkpt>
<trkpt lat="50.0512317" lon="1.341065"><ele>3.81</ele></trkpt>
<trkpt lat="50.0512433" lon="1.3411083"><ele>4.08</ele></trkpt>
<trkpt lat="50.0512567" lon="1.341155"><ele>4.51</ele></trkpt>
<trkpt lat="50.0512533" lon="1.3412017"><ele>4.39</ele></trkpt>
<trkpt lat="50.05123329999999" lon="1.3412983"><ele>1.35</ele></trkpt>
<trkpt lat="50.0512567" lon="1.3413233"><ele>1.99</ele></trkpt>
<trkpt lat="50.05127170000001" lon="1.3413583"><ele>2.15</ele></trkpt>
<trkpt lat="50.0513033" lon="1.341365"><ele>2.4</ele></trkpt>
<trkpt lat="50.05131829999999" lon="1.3414033"><ele>3.09</ele></trkpt>
<trkpt lat="50.0513333" lon="1.3414433"><ele>3.5</ele></trkpt>
<trkpt lat="50.0513483" lon="1.34148"><ele>4.07</ele></trkpt>
<trkpt lat="50.05136000000001" lon="1.34152"><ele>4.83</ele></trkpt>
<trkpt lat="50.05134" lon="1.3415967"><ele>5.12</ele></trkpt>
<trkpt lat="50.0513733" lon="1.341595"><ele>5.97</ele></trkpt>
<trkpt lat="50.0514017" lon="1.3415967"><ele>6.549999999999999</ele></trkpt>
<trkpt lat="50.05150829999999" lon="1.3416467"><ele>5.7</ele></trkpt>
<trkpt lat="50.0515383" lon="1.3416617"><ele>4.72</ele></trkpt>
<trkpt lat="50.05157" lon="1.341665"><ele>3.93</ele></trkpt>
<trkpt lat="50.0515983" lon="1.3416533"><ele>3.379999999999999</ele></trkpt>
<trkpt lat="50.0515167" lon="1.3416567"><ele>0.68</ele></trkpt>
<trkpt lat="50.05149" lon="1.34167"><ele>0.67</ele></trkpt>
<trkpt lat="50.05145" lon="1.3417083"><ele>0.44</ele></trkpt>
<trkpt lat="50.0514117" lon="1.34175"><ele>0.35</ele></trkpt>
<trkpt lat="50.05138170000001" lon="1.3417683"><ele>0.41</ele></trkpt>
<trkpt lat="50.0513533" lon="1.3418"><ele>0.37</ele></trkpt>
<trkpt lat="50.0513517" lon="1.3417417"><ele>0.38</ele></trkpt>
<trkpt lat="50.0513333" lon="1.341705"><ele>1.03</ele></trkpt>
<trkpt lat="50.0513083" lon="1.3416817"><ele>1.04</ele></trkpt>
<trkpt lat="50.0512917" lon="1.3416483"><ele>0.68</ele></trkpt>
<trkpt lat="50.051265" lon="1.3416267"><ele>0.18</ele></trkpt>
<trkpt lat="50.05124" lon="1.341645"><ele>-0.32</ele></trkpt>
<trkpt lat="50.0512767" lon="1.3415733"><ele>-0.46</ele></trkpt>
<trkpt lat="50.0512317" lon="1.3415933"><ele>0.37</ele></trkpt>
<trkpt lat="50.0512233" lon="1.3416333"><ele>1.3</ele></trkpt>
<trkpt lat="50.05121170000001" lon="1.3416833"><ele>-2.28</ele></trkpt>
<trkpt lat="50.0512417" lon="1.3416733"><ele>-2.36</ele></trkpt>
<trkpt lat="50.05127" lon="1.34167"><ele>-2.08</ele></trkpt>
<trkpt lat="50.0512867" lon="1.3417067"><ele>-2.02</ele></trkpt>
<trkpt lat="50.0513117" lon="1.341735"><ele>-1.8</ele></trkpt>
<trkpt lat="50.05133170000001" lon="1.341775"><ele>-1.78</ele></trkpt>
<trkpt lat="50.0513333" lon="1.3418183"><ele>-1.4</ele></trkpt>
<trkpt lat="50.05124670000001" lon="1.341925"><ele>-0.46</ele></trkpt>
<trkpt lat="50.0513467" lon="1.34184"><ele>-2.15</ele></trkpt>
<trkpt lat="50.05138669999999" lon="1.341815"><ele>-1.99</ele></trkpt>
<trkpt lat="50.05141" lon="1.34178"><ele>-1.82</ele></trkpt>
<trkpt lat="50.0514233" lon="1.3418467"><ele>-1.53</ele></trkpt>
<trkpt lat="50.0514517" lon="1.341875"><ele>-1.59</ele></trkpt>
<trkpt lat="50.0514767" lon="1.3419"><ele>-0.84</ele></trkpt>
<trkpt lat="50.05152" lon="1.3418883"><ele>5.84</ele></trkpt>
<trkpt lat="50.0515483" lon="1.3419167"><ele>5.93</ele></trkpt>
<trkpt lat="50.05156829999999" lon="1.3419467"><ele>6.83</ele></trkpt>
<trkpt lat="50.051585" lon="1.3419883"><ele>7.41</ele></trkpt>
<trkpt lat="50.0516" lon="1.34203"><ele>8.1</ele></trkpt>
<trkpt lat="50.05161830000001" lon="1.3420667"><ele>8.6</ele></trkpt>
<trkpt lat="50.0516367" lon="1.342105"><ele>9.42</ele></trkpt>
<trkpt lat="50.05164000000001" lon="1.3421533"><ele>9.81</ele></trkpt>
<trkpt lat="50.05166" lon="1.3421833"><ele>10.04</ele></trkpt>
<trkpt lat="50.051685" lon="1.342205"><ele>10.5</ele></trkpt>
<trkpt lat="50.05161" lon="1.3423033"><ele>6.15</ele></trkpt>
<trkpt lat="50.05157" lon="1.34237"><ele>3.01</ele></trkpt>
<trkpt lat="50.05148329999999" lon="1.3424633"><ele>-2.45</ele></trkpt>
<trkpt lat="50.0513933" lon="1.342525"><ele>-7.16</ele></trkpt>
<trkpt lat="50.051485" lon="1.34249"><ele>-7.55</ele></trkpt>
<trkpt lat="50.051515" lon="1.34247"><ele>-7.62</ele></trkpt>
<trkpt lat="50.0516033" lon="1.3424283"><ele>-6.92</ele></trkpt>
<trkpt lat="50.05163" lon="1.3424083"><ele>-5.48</ele></trkpt>
<trkpt lat="50.05166" lon="1.3424217"><ele>-4</ele></trkpt>
<trkpt lat="50.05169" lon="1.3424333"><ele>-2.29</ele></trkpt>
<trkpt lat="50.05171670000001" lon="1.34246"><ele>-1.14</ele></trkpt>
<trkpt lat="50.0517483" lon="1.34249"><ele>-0.33</ele></trkpt>
<trkpt lat="50.051775" lon="1.3425083"><ele>0.68</ele></trkpt>
<trkpt lat="50.05180500000001" lon="1.3425183"><ele>1.76</ele></trkpt>
<trkpt lat="50.05183169999999" lon="1.342545"><ele>2.97</ele></trkpt>
<trkpt lat="50.051855" lon="1.342575"><ele>3.76</ele></trkpt>
<trkpt lat="50.0518833" lon="1.342605"><ele>5.93</ele></trkpt>
<trkpt lat="50.05190329999999" lon="1.3426383"><ele>7.54</ele></trkpt>
<trkpt lat="50.0519233" lon="1.3426683"><ele>8.64</ele></trkpt>
<trkpt lat="50.0519433" lon="1.3427067"><ele>9.56</ele></trkpt>
<trkpt lat="50.0519517" lon="1.34275"><ele>10.37</ele></trkpt>
<trkpt lat="50.0519467" lon="1.3427967"><ele>9.79</ele></trkpt>
<trkpt lat="50.0519367" lon="1.34288"><ele>8.97</ele></trkpt>
<trkpt lat="50.0519117" lon="1.3428983"><ele>8.29</ele></trkpt>
<trkpt lat="50.0518233" lon="1.34299"><ele>0.51</ele></trkpt>
<trkpt lat="50.0519117" lon="1.3430067"><ele>-0.49</ele></trkpt>
<trkpt lat="50.05194169999999" lon="1.3430167"><ele>0.05999999999999999</ele></trkpt>
<trkpt lat="50.05200000000001" lon="1.3430717"><ele>1.53</ele></trkpt>
<trkpt lat="50.0520283" lon="1.3430567"><ele>2.79</ele></trkpt>
<trkpt lat="50.05205500000001" lon="1.3430383"><ele>3.11</ele></trkpt>
<trkpt lat="50.0520833" lon="1.3430117"><ele>3.14</ele></trkpt>
<trkpt lat="50.052035" lon="1.3430267"><ele>2.89</ele></trkpt>
<trkpt lat="50.0520083" lon="1.3430333"><ele>2.3</ele></trkpt>
<trkpt lat="50.0519717" lon="1.34304"><ele>1.56</ele></trkpt>
<trkpt lat="50.0519433" lon="1.3430517"><ele>1.13</ele></trkpt>
<trkpt lat="50.051905" lon="1.3430583"><ele>0.49</ele></trkpt>
<trkpt lat="50.0518867" lon="1.34302"><ele>0.12</ele></trkpt>
<trkpt lat="50.0518917" lon="1.342935"><ele>0.14</ele></trkpt>
<trkpt lat="50.0518983" lon="1.3428933"><ele>0.59</ele></trkpt>
<trkpt lat="50.0518683" lon="1.342865"><ele>0.8099999999999999</ele></trkpt>
<trkpt lat="50.0518383" lon="1.342875"><ele>0.93</ele></trkpt>
<trkpt lat="50.0518167" lon="1.3429067"><ele>0.88</ele></trkpt>
<trkpt lat="50.0517817" lon="1.3428933"><ele>0.28</ele></trkpt>
<trkpt lat="50.05172000000001" lon="1.34282"><ele>1.11</ele></trkpt>
<trkpt lat="50.0517367" lon="1.3427817"><ele>1.8</ele></trkpt>
<trkpt lat="50.05172999999999" lon="1.342735"><ele>1.84</ele></trkpt>
<trkpt lat="50.0516933" lon="1.3427017"><ele>1.37</ele></trkpt>
<trkpt lat="50.05166" lon="1.342675"><ele>1.51</ele></trkpt>
<trkpt lat="50.05163" lon="1.3426867"><ele>1.74</ele></trkpt>
<trkpt lat="50.05160670000001" lon="1.3427167"><ele>1.74</ele></trkpt>
<trkpt lat="50.0516633" lon="1.3426867"><ele>1.78</ele></trkpt>
<trkpt lat="50.0516983" lon="1.3426883"><ele>1.71</ele></trkpt>
<trkpt lat="50.051745" lon="1.3427117"><ele>1.51</ele></trkpt>
<trkpt lat="50.0517733" lon="1.342735"><ele>1.91</ele></trkpt>
<trkpt lat="50.0517933" lon="1.3427767"><ele>2.14</ele></trkpt>
<trkpt lat="50.0518167" lon="1.3428167"><ele>2.33</ele></trkpt>
<trkpt lat="50.05183999999999" lon="1.3428417"><ele>2.5</ele></trkpt>
<trkpt lat="50.05186" lon="1.34288"><ele>2.55</ele></trkpt>
<trkpt lat="50.0518867" lon="1.3429117"><ele>3.169999999999999</ele></trkpt>
<trkpt lat="50.05191500000001" lon="1.3429367"><ele>3.53</ele></trkpt>
<trkpt lat="50.0519317" lon="1.34297"><ele>3.47</ele></trkpt>
<trkpt lat="50.0519483" lon="1.3430083"><ele>3.47</ele></trkpt>
<trkpt lat="50.05194169999999" lon="1.34305"><ele>3.37</ele></trkpt>
<trkpt lat="50.05196" lon="1.3430067"><ele>-0.28</ele></trkpt>
<trkpt lat="50.0519267" lon="1.3430317"><ele>1.52</ele></trkpt>
<trkpt lat="50.051955" lon="1.3430333"><ele>1.01</ele></trkpt>
<trkpt lat="50.0519817" lon="1.3430617"><ele>1.13</ele></trkpt>
<trkpt lat="50.0519933" lon="1.343105"><ele>1.4</ele></trkpt>
<trkpt lat="50.05202" lon="1.34313"><ele>1.71</ele></trkpt>
<trkpt lat="50.0520483" lon="1.3431533"><ele>2.17</ele></trkpt>
<trkpt lat="50.0520733" lon="1.3431783"><ele>2.86</ele></trkpt>
<trkpt lat="50.0520833" lon="1.34322"><ele>3.490000000000001</ele></trkpt>
<trkpt lat="50.05211" lon="1.3432317"><ele>4.16</ele></trkpt>
<trkpt lat="50.0521433" lon="1.3432467"><ele>4.81</ele></trkpt>
<trkpt lat="50.05217330000001" lon="1.343255"><ele>5.3</ele></trkpt>
<trkpt lat="50.05219999999999" lon="1.3432683"><ele>5.8</ele></trkpt>
<trkpt lat="50.0522017" lon="1.3433133"><ele>6.5</ele></trkpt>
<trkpt lat="50.052195" lon="1.3433633"><ele>6.73</ele></trkpt>
<trkpt lat="50.05221" lon="1.3434133"><ele>7.009999999999999</ele></trkpt>
<trkpt lat="50.052235" lon="1.3434317"><ele>7.109999999999999</ele></trkpt>
<trkpt lat="50.0522483" lon="1.3434683"><ele>7.14</ele></trkpt>
<trkpt lat="50.05225999999999" lon="1.34351"><ele>7.14</ele></trkpt>
<trkpt lat="50.0522383" lon="1.3435883"><ele>6.169999999999999</ele></trkpt>
<trkpt lat="50.0522133" lon="1.343615"><ele>5.56</ele></trkpt>
<trkpt lat="50.052245" lon="1.343655"><ele>5.57</ele></trkpt>
<trkpt lat="50.052265" lon="1.3436883"><ele>5.19</ele></trkpt>
<trkpt lat="50.052275" lon="1.3437283"><ele>4.76</ele></trkpt>
<trkpt lat="50.0522333" lon="1.3438617"><ele>3.700000000000001</ele></trkpt>
<trkpt lat="50.0522617" lon="1.343855"><ele>3.18</ele></trkpt>
<trkpt lat="50.05228499999999" lon="1.3438767"><ele>2.85</ele></trkpt>
<trkpt lat="50.05223" lon="1.34399"><ele>2.8</ele></trkpt>
<trkpt lat="50.0522533" lon="1.3439617"><ele>2.28</ele></trkpt>
<trkpt lat="50.05229" lon="1.3439583"><ele>2.51</ele></trkpt>
<trkpt lat="50.0523283" lon="1.3439567"><ele>2.7</ele></trkpt>
<trkpt lat="50.05236330000001" lon="1.343965"><ele>3.169999999999999</ele></trkpt>
<trkpt lat="50.05238670000001" lon="1.34399"><ele>3.6</ele></trkpt>
<trkpt lat="50.0524083" lon="1.3440167"><ele>4.09</ele></trkpt>
<trkpt lat="50.05243" lon="1.3440533"><ele>4.72</ele></trkpt>
<trkpt lat="50.05244669999999" lon="1.3440967"><ele>4.93</ele></trkpt>
<trkpt lat="50.0524633" lon="1.34414"><ele>5.04</ele></trkpt>
<trkpt lat="50.05247499999999" lon="1.3441783"><ele>5.24</ele></trkpt>
<trkpt lat="50.05248330000001" lon="1.3442217"><ele>5.07</ele></trkpt>
<trkpt lat="50.0524867" lon="1.3442667"><ele>5.39</ele></trkpt>
<trkpt lat="50.052485" lon="1.344345"><ele>4.27</ele></trkpt>
<trkpt lat="50.0523933" lon="1.3444133"><ele>1.06</ele></trkpt>
<trkpt lat="50.052305" lon="1.3444683"><ele>0.37</ele></trkpt>
<trkpt lat="50.05238" lon="1.3444067"><ele>-0.18</ele></trkpt>
<trkpt lat="50.0524733" lon="1.34438"><ele>-0.15</ele></trkpt>
<trkpt lat="50.052485" lon="1.3444183"><ele>-0.16</ele></trkpt>
<trkpt lat="50.0524933" lon="1.3443717"><ele>1.38</ele></trkpt>
<trkpt lat="50.05252" lon="1.3443817"><ele>1.91</ele></trkpt>
<trkpt lat="50.0525417" lon="1.3444083"><ele>2.11</ele></trkpt>
<trkpt lat="50.0525583" lon="1.344445"><ele>2.33</ele></trkpt>
<trkpt lat="50.05258" lon="1.3444717"><ele>2.6</ele></trkpt>
<trkpt lat="50.0526017" lon="1.3445033"><ele>2.81</ele></trkpt>
<trkpt lat="50.0526283" lon="1.3445433"><ele>3.01</ele></trkpt>
<trkpt lat="50.05264829999999" lon="1.3445717"><ele>3.37</ele></trkpt>
<trkpt lat="50.0526683" lon="1.3446067"><ele>3.700000000000001</ele></trkpt>
<trkpt lat="50.0526833" lon="1.3446433"><ele>3.93</ele></trkpt>
<trkpt lat="50.05269500000001" lon="1.3446867"><ele>3.87</ele></trkpt>
<trkpt lat="50.0527133" lon="1.3447333"><ele>3.649999999999999</ele></trkpt>
<trkpt lat="50.05272999999999" lon="1.3447767"><ele>3.71</ele></trkpt>
<trkpt lat="50.0527533" lon="1.344805"><ele>3.71</ele></trkpt>
<trkpt lat="50.0527683" lon="1.34484"><ele>3.9</ele></trkpt>
<trkpt lat="50.05278330000001" lon="1.3448767"><ele>4.14</ele></trkpt>
<trkpt lat="50.0528" lon="1.3449233"><ele>4.43</ele></trkpt>
<trkpt lat="50.05282" lon="1.3449517"><ele>4.54</ele></trkpt>
<trkpt lat="50.0528417" lon="1.3449883"><ele>4.81</ele></trkpt>
<trkpt lat="50.05286000000001" lon="1.3450267"><ele>4.91</ele></trkpt>
<trkpt lat="50.0528783" lon="1.3450667"><ele>5.11</ele></trkpt>
<trkpt lat="50.0528817" lon="1.3451117"><ele>5.27</ele></trkpt>
<trkpt lat="50.0528833" lon="1.3451667"><ele>4.98</ele></trkpt>
<trkpt lat="50.05289499999999" lon="1.34522"><ele>4.85</ele></trkpt>
<trkpt lat="50.05283170000001" lon="1.3451983"><ele>-3.03</ele></trkpt>
<trkpt lat="50.0528817" lon="1.3452517"><ele>-1.77</ele></trkpt>
<trkpt lat="50.0528917" lon="1.345295"><ele>-1.06</ele></trkpt>
<trkpt lat="50.0529" lon="1.3453417"><ele>-1.35</ele></trkpt>
<trkpt lat="50.0529083" lon="1.345385"><ele>-1.64</ele></trkpt>
<trkpt lat="50.0528383" lon="1.3454817"><ele>-5.3</ele></trkpt>
<trkpt lat="50.0527683" lon="1.3455917"><ele>-9.2</ele></trkpt>
<trkpt lat="50.0528233" lon="1.345505"><ele>-7.87</ele></trkpt>
<trkpt lat="50.052855" lon="1.3454717"><ele>-6.69</ele></trkpt>
<trkpt lat="50.0529183" lon="1.34544"><ele>0.2</ele></trkpt>
<trkpt lat="50.05295330000001" lon="1.34543"><ele>0.9099999999999999</ele></trkpt>
<trkpt lat="50.0529817" lon="1.3454217"><ele>1.1</ele></trkpt>
<trkpt lat="50.0530167" lon="1.3454183"><ele>1.14</ele></trkpt>
<trkpt lat="50.0530533" lon="1.34541"><ele>0.56</ele></trkpt>
<trkpt lat="50.0530917" lon="1.3454133"><ele>0.9199999999999999</ele></trkpt>
<trkpt lat="50.05312" lon="1.3453983"><ele>2.26</ele></trkpt>
<trkpt lat="50.053095" lon="1.3453817"><ele>2.62</ele></trkpt>
<trkpt lat="50.05307" lon="1.34541"><ele>2.73</ele></trkpt>
<trkpt lat="50.05304" lon="1.345435"><ele>2.81</ele></trkpt>
<trkpt lat="50.05302" lon="1.3454633"><ele>2.58</ele></trkpt>
<trkpt lat="50.0530167" lon="1.3455217"><ele>2.04</ele></trkpt>
<trkpt lat="50.0529383" lon="1.3456433"><ele>-1.39</ele></trkpt>
<trkpt lat="50.0529733" lon="1.3456567"><ele>-1.73</ele></trkpt>
<trkpt lat="50.0530067" lon="1.3456383"><ele>-1.48</ele></trkpt>
<trkpt lat="50.0530383" lon="1.3456233"><ele>-1.44</ele></trkpt>
<trkpt lat="50.05306499999999" lon="1.345605"><ele>-1.46</ele></trkpt>
<trkpt lat="50.0530833" lon="1.3455733"><ele>-1.45</ele></trkpt>
<trkpt lat="50.0531117" lon="1.3455533"><ele>-0.9499999999999998</ele></trkpt>
<trkpt lat="50.0531367" lon="1.3455333"><ele>-0.7</ele></trkpt>
<trkpt lat="50.05316" lon="1.3455067"><ele>-0.59</ele></trkpt>
<trkpt lat="50.0531833" lon="1.3454817"><ele>-0.36</ele></trkpt>
<trkpt lat="50.0532" lon="1.3455167"><ele>-0.54</ele></trkpt>
<trkpt lat="50.0531217" lon="1.34559"><ele>-1.61</ele></trkpt>
<trkpt lat="50.0531517" lon="1.3456017"><ele>-2.16</ele></trkpt>
<trkpt lat="50.0531867" lon="1.3456217"><ele>-2.1</ele></trkpt>
<trkpt lat="50.05319170000001" lon="1.3456683"><ele>-2.13</ele></trkpt>
<trkpt lat="50.053225" lon="1.3456567"><ele>0.64</ele></trkpt>
<trkpt lat="50.0532533" lon="1.3456767"><ele>0.74</ele></trkpt>
<trkpt lat="50.05326" lon="1.3457217"><ele>0.93</ele></trkpt>
<trkpt lat="50.05326329999999" lon="1.3457933"><ele>0.55</ele></trkpt>
<trkpt lat="50.0532617" lon="1.3458367"><ele>0.32</ele></trkpt>
<trkpt lat="50.0532683" lon="1.34588"><ele>0.18</ele></trkpt>
<trkpt lat="50.0532833" lon="1.3459233"><ele>-0.09</ele></trkpt>
<trkpt lat="50.05331" lon="1.345955"><ele>-0.13</ele></trkpt>
<trkpt lat="50.0533467" lon="1.3460333"><ele>0.42</ele></trkpt>
<trkpt lat="50.0533767" lon="1.3460483"><ele>0.8099999999999999</ele></trkpt>
<trkpt lat="50.0534" lon="1.3460933"><ele>0.66</ele></trkpt>
<trkpt lat="50.053415" lon="1.3461383"><ele>0.34</ele></trkpt>
<trkpt lat="50.0534317" lon="1.3461733"><ele>0.67</ele></trkpt>
<trkpt lat="50.0534583" lon="1.3462067"><ele>1.08</ele></trkpt>
<trkpt lat="50.053465" lon="1.3462517"><ele>1.23</ele></trkpt>
<trkpt lat="50.05349" lon="1.3462733"><ele>1.34</ele></trkpt>
<trkpt lat="50.0535083" lon="1.3463133"><ele>1.51</ele></trkpt>
<trkpt lat="50.0535067" lon="1.3464"><ele>-2.38</ele></trkpt>
<trkpt lat="50.0535333" lon="1.34646"><ele>-1.49</ele></trkpt>
<trkpt lat="50.0535533" lon="1.3465083"><ele>-1.24</ele></trkpt>
<trkpt lat="50.0535667" lon="1.34656"><ele>-0.51</ele></trkpt>
<trkpt lat="50.05358" lon="1.3466"><ele>0.26</ele></trkpt>
<trkpt lat="50.0535967" lon="1.3466333"><ele>1.98</ele></trkpt>
<trkpt lat="50.0536" lon="1.3466867"><ele>2.04</ele></trkpt>
<trkpt lat="50.0536133" lon="1.3467233"><ele>1.95</ele></trkpt>
<trkpt lat="50.0536383" lon="1.34675"><ele>1.94</ele></trkpt>
<trkpt lat="50.0536633" lon="1.3467767"><ele>1.85</ele></trkpt>
<trkpt lat="50.053695" lon="1.3468033"><ele>2.13</ele></trkpt>
<trkpt lat="50.0537217" lon="1.34682"><ele>2.24</ele></trkpt>
<trkpt lat="50.0537467" lon="1.3468517"><ele>2.37</ele></trkpt>
<trkpt lat="50.05375999999999" lon="1.3468967"><ele>2.27</ele></trkpt>
<trkpt lat="50.0537683" lon="1.3469367"><ele>2.22</ele></trkpt>
<trkpt lat="50.05378" lon="1.34698"><ele>2.4</ele></trkpt>
<trkpt lat="50.0537867" lon="1.3470267"><ele>1.38</ele></trkpt>
<trkpt lat="50.05378499999999" lon="1.3470733"><ele>1.7</ele></trkpt>
<trkpt lat="50.05379" lon="1.34712"><ele>1.48</ele></trkpt>
<trkpt lat="50.0537983" lon="1.347175"><ele>1.53</ele></trkpt>
<trkpt lat="50.0538167" lon="1.347215"><ele>1.73</ele></trkpt>
<trkpt lat="50.0538433" lon="1.3472367"><ele>1.5</ele></trkpt>
<trkpt lat="50.05386499999999" lon="1.3472733"><ele>0.22</ele></trkpt>
<trkpt lat="50.0538783" lon="1.34731"><ele>0.05</ele></trkpt>
<trkpt lat="50.0539017" lon="1.3473383"><ele>-0.26</ele></trkpt>
<trkpt lat="50.05392499999999" lon="1.347375"><ele>-0.43</ele></trkpt>
<trkpt lat="50.0539433" lon="1.3474083"><ele>-0.56</ele></trkpt>
<trkpt lat="50.053965" lon="1.3474383"><ele>-0.75</ele></trkpt>
<trkpt lat="50.05398" lon="1.3474817"><ele>-1.06</ele></trkpt>
<trkpt lat="50.0539767" lon="1.347595"><ele>-1.57</ele></trkpt>
<trkpt lat="50.0539883" lon="1.3476383"><ele>-1.54</ele></trkpt>
<trkpt lat="50.0539883" lon="1.34769"><ele>-1.07</ele></trkpt>
<trkpt lat="50.054005" lon="1.3477283"><ele>-0.99</ele></trkpt>
<trkpt lat="50.05403" lon="1.347745"><ele>-0.77</ele></trkpt>
<trkpt lat="50.0540217" lon="1.347785"><ele>-0.8499999999999999</ele></trkpt>
<trkpt lat="50.0540217" lon="1.3478283"><ele>-0.6</ele></trkpt>
<trkpt lat="50.05400999999999" lon="1.3478667"><ele>-0.01</ele></trkpt>
<trkpt lat="50.0540117" lon="1.34791"><ele>1.04</ele></trkpt>
<trkpt lat="50.0540333" lon="1.3479467"><ele>1.01</ele></trkpt>
<trkpt lat="50.0540533" lon="1.3479783"><ele>1.04</ele></trkpt>
<trkpt lat="50.0540833" lon="1.34801"><ele>1.32</ele></trkpt>
<trkpt lat="50.05409" lon="1.3480533"><ele>1.56</ele></trkpt>
<trkpt lat="50.05409829999999" lon="1.348095"><ele>1.93</ele></trkpt>
<trkpt lat="50.0540833" lon="1.34816"><ele>1.81</ele></trkpt>
<trkpt lat="50.05409330000001" lon="1.3482033"><ele>1.84</ele></trkpt>
<trkpt lat="50.0541133" lon="1.3482333"><ele>2.11</ele></trkpt>
<trkpt lat="50.054115" lon="1.3482783"><ele>2.15</ele></trkpt>
<trkpt lat="50.05411169999999" lon="1.3483517"><ele>1.79</ele></trkpt>
<trkpt lat="50.0541133" lon="1.3484033"><ele>1.9</ele></trkpt>
<trkpt lat="50.0541133" lon="1.3484483"><ele>1.87</ele></trkpt>
<trkpt lat="50.0541183" lon="1.3484933"><ele>1.74</ele></trkpt>
<trkpt lat="50.0541167" lon="1.3485383"><ele>1.44</ele></trkpt>
<trkpt lat="50.0541267" lon="1.3486117"><ele>1.2</ele></trkpt>
<trkpt lat="50.05414500000001" lon="1.3486467"><ele>1.51</ele></trkpt>
<trkpt lat="50.05416" lon="1.3486833"><ele>0.49</ele></trkpt>
<trkpt lat="50.0541783" lon="1.34872"><ele>0.77</ele></trkpt>
<trkpt lat="50.05418329999999" lon="1.34886"><ele>2.13</ele></trkpt>
<trkpt lat="50.0541767" lon="1.34891"><ele>2.51</ele></trkpt>
<trkpt lat="50.0541517" lon="1.3489433"><ele>1.82</ele></trkpt>
<trkpt lat="50.054075" lon="1.34907"><ele>-2.09</ele></trkpt>
<trkpt lat="50.0541217" lon="1.3490767"><ele>-1.36</ele></trkpt>
<trkpt lat="50.05418670000001" lon="1.34905"><ele>0.28</ele></trkpt>
<trkpt lat="50.0542067" lon="1.34901"><ele>1.1</ele></trkpt>
<trkpt lat="50.05423" lon="1.34898"><ele>1.31</ele></trkpt>
<trkpt lat="50.0542517" lon="1.3489517"><ele>1.24</ele></trkpt>
<trkpt lat="50.0541933" lon="1.349055"><ele>2.66</ele></trkpt>
<trkpt lat="50.05423" lon="1.349045"><ele>1.67</ele></trkpt>
<trkpt lat="50.05426" lon="1.349055"><ele>1.47</ele></trkpt>
<trkpt lat="50.0542867" lon="1.34907"><ele>1.06</ele></trkpt>
<trkpt lat="50.0543117" lon="1.349095"><ele>0.94</ele></trkpt>
<trkpt lat="50.05434" lon="1.3491233"><ele>0.89</ele></trkpt>
<trkpt lat="50.0543633" lon="1.3491583"><ele>1.3</ele></trkpt>
<trkpt lat="50.05433500000001" lon="1.3491783"><ele>1.08</ele></trkpt>
<trkpt lat="50.0543633" lon="1.3491967"><ele>0.15</ele></trkpt>
<trkpt lat="50.0543933" lon="1.3492017"><ele>-0.13</ele></trkpt>
<trkpt lat="50.0544217" lon="1.3492083"><ele>-0.45</ele></trkpt>
<trkpt lat="50.05445829999999" lon="1.3492133"><ele>-0.49</ele></trkpt>
<trkpt lat="50.0544933" lon="1.3492133"><ele>-0.39</ele></trkpt>
<trkpt lat="50.05452170000001" lon="1.3492133"><ele>0.03</ele></trkpt>
<trkpt lat="50.0545483" lon="1.349225"><ele>0.2</ele></trkpt>
<trkpt lat="50.0545767" lon="1.3492183"><ele>0.74</ele></trkpt>
<trkpt lat="50.05461" lon="1.3492433"><ele>1.72</ele></trkpt>
<trkpt lat="50.054635" lon="1.34928"><ele>2.7</ele></trkpt>
<trkpt lat="50.0546517" lon="1.3493217"><ele>3.04</ele></trkpt>
<trkpt lat="50.054665" lon="1.3493617"><ele>3.33</ele></trkpt>
<trkpt lat="50.0546767" lon="1.3494083"><ele>3.51</ele></trkpt>
<trkpt lat="50.0546833" lon="1.3494533"><ele>3.83</ele></trkpt>
<trkpt lat="50.0547067" lon="1.3494883"><ele>3.58</ele></trkpt>
<trkpt lat="50.05472830000001" lon="1.34952"><ele>3.44</ele></trkpt>
<trkpt lat="50.0547517" lon="1.3495533"><ele>3.18</ele></trkpt>
<trkpt lat="50.054785" lon="1.3496033"><ele>2.72</ele></trkpt>
<trkpt lat="50.054795" lon="1.3496433"><ele>2.33</ele></trkpt>
<trkpt lat="50.0548217" lon="1.3496583"><ele>2.59</ele></trkpt>
<trkpt lat="50.05485" lon="1.3496883"><ele>2.73</ele></trkpt>
<trkpt lat="50.0548783" lon="1.3496983"><ele>2.75</ele></trkpt>
<trkpt lat="50.05489169999999" lon="1.3497367"><ele>3.18</ele></trkpt>
<trkpt lat="50.0549117" lon="1.3497717"><ele>3.54</ele></trkpt>
<trkpt lat="50.05493" lon="1.3498083"><ele>3.72</ele></trkpt>
<trkpt lat="50.05495000000001" lon="1.3498467"><ele>3.91</ele></trkpt>
<trkpt lat="50.05496" lon="1.3498867"><ele>4.44</ele></trkpt>
<trkpt lat="50.05498829999999" lon="1.349905"><ele>4.34</ele></trkpt>
<trkpt lat="50.05501329999999" lon="1.3499217"><ele>4.25</ele></trkpt>
<trkpt lat="50.0550033" lon="1.3499667"><ele>4.2</ele></trkpt>
<trkpt lat="50.0549867" lon="1.35"><ele>4.15</ele></trkpt>
<trkpt lat="50.0549817" lon="1.350045"><ele>4.24</ele></trkpt>
<trkpt lat="50.0550067" lon="1.3500633"><ele>4.39</ele></trkpt>
<trkpt lat="50.05498829999999" lon="1.3500317"><ele>3.35</ele></trkpt>
<trkpt lat="50.05497500000001" lon="1.349995"><ele>2.85</ele></trkpt>
<trkpt lat="50.0549683" lon="1.35004"><ele>0.94</ele></trkpt>
<trkpt lat="50.0549933" lon="1.350075"><ele>1.23</ele></trkpt>
<trkpt lat="50.0550217" lon="1.3500933"><ele>1.53</ele></trkpt>
<trkpt lat="50.0550533" lon="1.3500917"><ele>1.64</ele></trkpt>
<trkpt lat="50.0551" lon="1.3501633"><ele>5.05</ele></trkpt>
<trkpt lat="50.0550933" lon="1.3502083"><ele>5.23</ele></trkpt>
<trkpt lat="50.0551017" lon="1.350255"><ele>5.77</ele></trkpt>
<trkpt lat="50.0551017" lon="1.3502983"><ele>6.299999999999999</ele></trkpt>
<trkpt lat="50.05511" lon="1.3503583"><ele>7.259999999999999</ele></trkpt>
<trkpt lat="50.055105" lon="1.3504033"><ele>7.609999999999999</ele></trkpt>
<trkpt lat="50.0551217" lon="1.350445"><ele>7.55</ele></trkpt>
<trkpt lat="50.0551317" lon="1.3504867"><ele>7.34</ele></trkpt>
<trkpt lat="50.0551467" lon="1.3505383"><ele>7.17</ele></trkpt>
<trkpt lat="50.05516669999999" lon="1.350585"><ele>7.04</ele></trkpt>
<trkpt lat="50.0551817" lon="1.3506317"><ele>6.969999999999999</ele></trkpt>
<trkpt lat="50.055205" lon="1.3506567"><ele>6.549999999999999</ele></trkpt>
<trkpt lat="50.0552117" lon="1.3507033"><ele>6.609999999999999</ele></trkpt>
<trkpt lat="50.05523" lon="1.350745"><ele>6.81</ele></trkpt>
<trkpt lat="50.0552433" lon="1.3507867"><ele>6.649999999999999</ele></trkpt>
<trkpt lat="50.05524170000001" lon="1.3508317"><ele>6.54</ele></trkpt>
<trkpt lat="50.05523" lon="1.350875"><ele>6.52</ele></trkpt>
<trkpt lat="50.0552433" lon="1.3509117"><ele>6.15</ele></trkpt>
<trkpt lat="50.05527" lon="1.3509283"><ele>6.68</ele></trkpt>
<trkpt lat="50.0552933" lon="1.3509883"><ele>6.81</ele></trkpt>
<trkpt lat="50.05527669999999" lon="1.3510333"><ele>7.23</ele></trkpt>
<trkpt lat="50.05528829999999" lon="1.3511117"><ele>7.23</ele></trkpt>
<trkpt lat="50.0552917" lon="1.3511617"><ele>7.04</ele></trkpt>
<trkpt lat="50.0553" lon="1.3512033"><ele>6.53</ele></trkpt>
<trkpt lat="50.05531330000001" lon="1.351245"><ele>6.549999999999999</ele></trkpt>
<trkpt lat="50.0553317" lon="1.351285"><ele>5.98</ele></trkpt>
<trkpt lat="50.05535" lon="1.35134"><ele>5.97</ele></trkpt>
<trkpt lat="50.05537" lon="1.3513717"><ele>5.84</ele></trkpt>
<trkpt lat="50.0553917" lon="1.3514033"><ele>6.47</ele></trkpt>
<trkpt lat="50.05542169999999" lon="1.351515"><ele>7.27</ele></trkpt>
<trkpt lat="50.0554367" lon="1.3515567"><ele>7.12</ele></trkpt>
<trkpt lat="50.05544669999999" lon="1.3516017"><ele>6.87</ele></trkpt>
<trkpt lat="50.0553917" lon="1.351735"><ele>5.15</ele></trkpt>
<trkpt lat="50.0553633" lon="1.3517617"><ele>4.69</ele></trkpt>
<trkpt lat="50.0553283" lon="1.3518283"><ele>3.490000000000001</ele></trkpt>
<trkpt lat="50.0553583" lon="1.351815"><ele>3.12</ele></trkpt>
<trkpt lat="50.05538670000001" lon="1.3518033"><ele>3.3</ele></trkpt>
<trkpt lat="50.05542169999999" lon="1.3517767"><ele>3.36</ele></trkpt>
<trkpt lat="50.0554483" lon="1.351755"><ele>3.18</ele></trkpt>
<trkpt lat="50.0554733" lon="1.3517267"><ele>3.05</ele></trkpt>
<trkpt lat="50.055495" lon="1.351695"><ele>2.94</ele></trkpt>
<trkpt lat="50.055515" lon="1.3516667"><ele>2.68</ele></trkpt>
<trkpt lat="50.05553" lon="1.3516267"><ele>2.15</ele></trkpt>
<trkpt lat="50.0554667" lon="1.3516717"><ele>7.44</ele></trkpt>
<trkpt lat="50.05544" lon="1.3517"><ele>8.12</ele></trkpt>
<trkpt lat="50.0554133" lon="1.3517117"><ele>8.48</ele></trkpt>
<trkpt lat="50.0553417" lon="1.3518333"><ele>7.63</ele></trkpt>
<trkpt lat="50.055375" lon="1.3518117"><ele>8.19</ele></trkpt>
<trkpt lat="50.0554067" lon="1.3517883"><ele>7.98</ele></trkpt>
<trkpt lat="50.05543329999999" lon="1.3517767"><ele>7.679999999999999</ele></trkpt>
<trkpt lat="50.0554617" lon="1.351765"><ele>7.55</ele></trkpt>
<trkpt lat="50.0554933" lon="1.3517633"><ele>7.02</ele></trkpt>
<trkpt lat="50.0555167" lon="1.3517867"><ele>6.299999999999999</ele></trkpt>
<trkpt lat="50.0555317" lon="1.3518217"><ele>5.92</ele></trkpt>
<trkpt lat="50.05555170000001" lon="1.3518667"><ele>5.51</ele></trkpt>
<trkpt lat="50.0555567" lon="1.3519167"><ele>5.05</ele></trkpt>
<trkpt lat="50.05558500000001" lon="1.3519317"><ele>5.14</ele></trkpt>
<trkpt lat="50.0556033" lon="1.3519717"><ele>4.54</ele></trkpt>
<trkpt lat="50.05562329999999" lon="1.35201"><ele>4.31</ele></trkpt>
<trkpt lat="50.05564830000001" lon="1.35205"><ele>3.85</ele></trkpt>
<trkpt lat="50.055665" lon="1.3520867"><ele>3.74</ele></trkpt>
<trkpt lat="50.0556333" lon="1.3520733"><ele>3.99</ele></trkpt>
<trkpt lat="50.0556083" lon="1.35205"><ele>2.86</ele></trkpt>
<trkpt lat="50.0556033" lon="1.3520083"><ele>2.16</ele></trkpt>
<trkpt lat="50.0555883" lon="1.35196"><ele>1.16</ele></trkpt>
<trkpt lat="50.0555667" lon="1.3519183"><ele>0.5</ele></trkpt>
<trkpt lat="50.055545" lon="1.351885"><ele>0.02</ele></trkpt>
<trkpt lat="50.0555233" lon="1.3518383"><ele>-1.13</ele></trkpt>
<trkpt lat="50.0555033" lon="1.3517933"><ele>-2.26</ele></trkpt>
<trkpt lat="50.0554883" lon="1.35174"><ele>-2.9</ele></trkpt>
<trkpt lat="50.0554683" lon="1.3516983"><ele>-3.05</ele></trkpt>
<trkpt lat="50.05544669999999" lon="1.35166"><ele>-3.25</ele></trkpt>
<trkpt lat="50.05543329999999" lon="1.3516183"><ele>-3.36</ele></trkpt>
<trkpt lat="50.05542" lon="1.3515817"><ele>-3.52</ele></trkpt>
<trkpt lat="50.0554067" lon="1.3515433"><ele>-3.85</ele></trkpt>
<trkpt lat="50.0553833" lon="1.3515"><ele>-4.29</ele></trkpt>
<trkpt lat="50.055355" lon="1.3514767"><ele>-4.73</ele></trkpt>
<trkpt lat="50.05533999999999" lon="1.3514317"><ele>-4.6</ele></trkpt>
<trkpt lat="50.05533999999999" lon="1.3513883"><ele>-4.3</ele></trkpt>
<trkpt lat="50.05533669999999" lon="1.351345"><ele>-4.14</ele></trkpt>
<trkpt lat="50.0553233" lon="1.3512933"><ele>-3.96</ele></trkpt>
<trkpt lat="50.0553233" lon="1.3512483"><ele>-3.51</ele></trkpt>
<trkpt lat="50.055315" lon="1.351205"><ele>-3.62</ele></trkpt>
<trkpt lat="50.055305" lon="1.3511617"><ele>-3.2</ele></trkpt>
<trkpt lat="50.0552967" lon="1.3511133"><ele>-2.93</ele></trkpt>
<trkpt lat="50.0552833" lon="1.3510717"><ele>-2.3</ele></trkpt>
<trkpt lat="50.0552733" lon="1.3510317"><ele>-1.15</ele></trkpt>
<trkpt lat="50.055245" lon="1.3509867"><ele>0.35</ele></trkpt>
<trkpt lat="50.0552217" lon="1.3509267"><ele>1.56</ele></trkpt>
<trkpt lat="50.05521" lon="1.3508833"><ele>1.83</ele></trkpt>
<trkpt lat="50.0552117" lon="1.350835"><ele>1.94</ele></trkpt>
<trkpt lat="50.0551933" lon="1.3507933"><ele>1.87</ele></trkpt>
<trkpt lat="50.05517" lon="1.350755"><ele>1.77</ele></trkpt>
<trkpt lat="50.0551517" lon="1.350715"><ele>1.58</ele></trkpt>
<trkpt lat="50.055135" lon="1.3506667"><ele>1.63</ele></trkpt>
<trkpt lat="50.0551183" lon="1.35063"><ele>1.83</ele></trkpt>
<trkpt lat="50.055105" lon="1.3505867"><ele>1.94</ele></trkpt>
<trkpt lat="50.05508669999999" lon="1.3505433"><ele>1.96</ele></trkpt>
<trkpt lat="50.05507" lon="1.3505017"><ele>2.13</ele></trkpt>
<trkpt lat="50.0550617" lon="1.3504617"><ele>2.33</ele></trkpt>
<trkpt lat="50.05507" lon="1.3504133"><ele>1.75</ele></trkpt>
<trkpt lat="50.05505" lon="1.35038"><ele>1.2</ele></trkpt>
<trkpt lat="50.05502670000001" lon="1.3503417"><ele>0.94</ele></trkpt>
<trkpt lat="50.05500169999999" lon="1.3503017"><ele>0.68</ele></trkpt>
<trkpt lat="50.0549817" lon="1.3502583"><ele>0.47</ele></trkpt>
<trkpt lat="50.054965" lon="1.3502167"><ele>0.25</ele></trkpt>
<trkpt lat="50.0549483" lon="1.35018"><ele>0.15</ele></trkpt>
<trkpt lat="50.05492829999999" lon="1.3501333"><ele>0.41</ele></trkpt>
<trkpt lat="50.0549183" lon="1.3500917"><ele>0.7</ele></trkpt>
<trkpt lat="50.05491" lon="1.3500467"><ele>0.93</ele></trkpt>
<trkpt lat="50.0548983" lon="1.3500033"><ele>0.9</ele></trkpt>
<trkpt lat="50.05488" lon="1.3499583"><ele>0.94</ele></trkpt>
<trkpt lat="50.05486" lon="1.34992"><ele>0.84</ele></trkpt>
<trkpt lat="50.054845" lon="1.349885"><ele>0.84</ele></trkpt>
<trkpt lat="50.05484329999999" lon="1.3498333"><ele>0.84</ele></trkpt>
<trkpt lat="50.05483" lon="1.3497917"><ele>0.74</ele></trkpt>
<trkpt lat="50.05481330000001" lon="1.3497517"><ele>0.45</ele></trkpt>
<trkpt lat="50.0547967" lon="1.34971"><ele>0.52</ele></trkpt>
<trkpt lat="50.05478000000001" lon="1.3496683"><ele>0.54</ele></trkpt>
<trkpt lat="50.0547567" lon="1.3496367"><ele>0.61</ele></trkpt>
<trkpt lat="50.0547433" lon="1.3496"><ele>1.04</ele></trkpt>
<trkpt lat="50.05472169999999" lon="1.3495717"><ele>0.94</ele></trkpt>
<trkpt lat="50.0547067" lon="1.3495167"><ele>0.83</ele></trkpt>
<trkpt lat="50.0546883" lon="1.3494767"><ele>0.8099999999999999</ele></trkpt>
<trkpt lat="50.0546717" lon="1.349435"><ele>0.9599999999999999</ele></trkpt>
<trkpt lat="50.0546683" lon="1.34939"><ele>1.07</ele></trkpt>
<trkpt lat="50.0546617" lon="1.349345"><ele>0.8600000000000001</ele></trkpt>
<trkpt lat="50.0546517" lon="1.3492983"><ele>0.64</ele></trkpt>
<trkpt lat="50.05464" lon="1.34926"><ele>0.54</ele></trkpt>
<trkpt lat="50.05464" lon="1.349215"><ele>0.47</ele></trkpt>
<trkpt lat="50.0546517" lon="1.349175"><ele>0.6</ele></trkpt>
<trkpt lat="50.05466999999999" lon="1.34914"><ele>0.83</ele></trkpt>
<trkpt lat="50.0546367" lon="1.34903"><ele>1.37</ele></trkpt>
<trkpt lat="50.054655" lon="1.34899"><ele>1.84</ele></trkpt>
<trkpt lat="50.0546683" lon="1.3489467"><ele>1.77</ele></trkpt>
<trkpt lat="50.05467830000001" lon="1.3489033"><ele>1.74</ele></trkpt>
<trkpt lat="50.0546933" lon="1.3488683"><ele>1.74</ele></trkpt>
<trkpt lat="50.05472169999999" lon="1.34886"><ele>1.9</ele></trkpt>
<trkpt lat="50.05475" lon="1.3488583"><ele>2.81</ele></trkpt>
<trkpt lat="50.0547817" lon="1.3488583"><ele>3.399999999999999</ele></trkpt>
<trkpt lat="50.0548033" lon="1.3488883"><ele>2.28</ele></trkpt>
</trkseg></trk>
</gpx>